[
    {
        "Altitude(m)": 624790.7755598536,
        "Argument of Periapsis(deg)": 0.0,
        "Eccentricity": 0.0,
        "Inclination(deg)": 60.0,
        "Latitude(deg)": -59.14705646704049,
        "Longitude(deg)": 61.03472107425335,
        "Mean Anomaly(deg)": -81.81820000000006,
        "RAAN(deg)": 235.0,
        "Satellite Name": "Test1 1051",
        "Satellite Number": 1051,
        "Semi-Major Axis(m)": 6980739.136638005,
        "Time(s)": 0
    },
    {
        "Altitude(m)": 624737.4301316887,
        "Argument of Periapsis(deg)": 0.00010418945913296404,
        "Eccentricity": 0.0,
        "Inclination(deg)": 60.0,
        "Latitude(deg)": -58.9945102726711,
        "Longitude(deg)": 62.15422047893987,
        "Mean Anomaly(deg)": -81.1980938545382,
        "RAAN(deg)": 234.99957995086027,
        "Satellite Name": "Test1 1051",
        "Satellite Number": 1051,
        "Semi-Major Axis(m)": 6980739.136638005,
        "Time(s)": 10
    }
]